STARLINK-3706           
1 52105U 22029T   22085.58334491 -.00875100  00000+0 -59614-2 0  9991
2 52105  53.2172 107.5364 0001062  56.5105 327.1084 15.76568278  2419
STARLINK-3670           
1 52106U 22029U   22085.58334491 -.00875023  00000+0 -59770-2 0  9999
2 52106  53.2172 107.5396 0001001  64.6379 317.6449 15.76508025  1918
STARLINK-3658           
1 52107U 22029V   22085.58334491 -.00875075  00000+0 -59502-2 0  9990
2 52107  53.2171 107.5344 0001013  64.1639 320.3309 15.76610146  1945
STARLINK-3698           
1 52108U 22029W   22085.58334491 -.00875060  00000+0 -59666-2 0  9996
2 52108  53.2172 107.5376 0001025  60.3304 322.8455 15.76547935  1902
STARLINK-3731           
1 52109U 22029X   22084.56187710  .00281817  00000+0  10744-2 0  9997
2 52109  53.2183 112.5630 0013526 128.6808 231.5430 15.86128881  2254
STARLINK-3687           
1 52110U 22029Y   22085.58334491 -.00874192  00000+0 -59496-2 0  9995
2 52110  53.2172 107.5357 0000924  71.8540 312.2076 15.76588150  1906
STARLINK-3708           
1 52111U 22029Z   22085.58334491 -.00875189  00000+0 -59295-2 0  9990
2 52111  53.2172 107.5307 0001070  54.8904 331.3661 15.76690926  1918
STARLINK-3734           
1 52112U 22029AA  22085.58334491 -.00874546  00000+0 -59418-2 0  9994
2 52112  53.2171 107.5337 0000994  72.6015 312.3552 15.76626984  1940
STARLINK-3736           
1 52113U 22029AB  22085.58334491 -.00875231  00000+0 -59199-2 0  9993
2 52113  53.2171 107.5288 0001039  60.8925 326.2579 15.76728668  1941
STARLINK-3737           
1 52114U 22029AC  22085.58334491 -.00875100  00000+0 -59351-2 0  9999
2 52114  53.2171 107.5318 0001001  63.8837 321.9522 15.76667869  1912
STARLINK-3685           
1 52115U 22029AD  22085.58334491 -.00875191  00000+0 -59080-2 0  9999
2 52115  53.2171 107.5269 0001010  60.9357 327.0622 15.76772815  1919
STARLINK-3735           
1 52116U 22029AE  22085.58334491 -.00875225  00000+0 -59244-2 0  9990
2 52116  53.2171 107.5300 0001016  62.2736 324.4177 15.76711701  1911
STARLINK-3738           
1 52117U 22029AF  22085.58334491 -.00875235  00000+0 -58987-2 0  9995
2 52117  53.2171 107.5251 0001031  60.4925 328.4032 15.76809119  1919
STARLINK-3743           
1 52118U 22029AG  22085.58334491 -.00875240  00000+0 -59139-2 0  9992
2 52118  53.2171 107.5281 0001038  57.0573 330.5114 15.76751633  1902
STARLINK-3558           
1 52119U 22029AH  22085.58334491 -.00874705  00000+0 -58842-2 0  9998
2 52119  53.2171 107.5231 0000957  78.3528 311.4062 15.76849814  1946
STARLINK-3534           
1 52120U 22029AJ  22085.58334491 -.00816371  00000+0 -54780-2 0  9992
2 52120  53.2169 107.5264 0001050  41.0552 347.4008 15.76748038  1901
STARLINK-3678           
1 52121U 22029AK  22085.58334491 -.00874736  00000+0 -58726-2 0  9996
2 52121  53.2171 107.5214 0000951  75.5494 315.0408 15.76894861  2414
STARLINK-3726           
1 52122U 22029AL  22085.58334491 -.00874653  00000+0 -58890-2 0  9997
2 52122  53.2171 107.5243 0000985  70.4282 318.8957 15.76829885  1944
STARLINK-3725           
1 52123U 22029AM  22085.58334491 -.00875406  00000+0 -58677-2 0  9998
2 52123  53.2171 107.5195 0001036  61.6094 329.8682 15.76931696  1943
STARLINK-3684           
1 52124U 22029AN  22085.58334491 -.00874735  00000+0 -58783-2 0  9991
2 52124  53.2171 107.5226 0000987  69.8143 320.3573 15.76872841  1905
STARLINK-3727           
1 52125U 22029AP  22085.58334491 -.00875418  00000+0 -58619-2 0  9999
2 52125  53.2171 107.5185 0001043  60.7920 331.0992 15.76954067  1946
STARLINK-3732           
1 52126U 22029AQ  22085.58334491 -.00875312  00000+0 -58724-2 0  9990
2 52126  53.2171 107.5207 0001004  66.1583 324.8896 15.76911422  1912
STARLINK-3715           
1 52127U 22029AR  22085.58334491 -.00875439  00000+0 -58514-2 0  9998
2 52127  53.2171 107.5167 0001047  59.9855 332.7601 15.76994648  1910
STARLINK-3719           
1 52128U 22029AS  22085.58334491  .00153904  19665-4  51401-3 0  9994
2 52128  53.2158 107.2354 0009030 310.0869 219.4542 15.89884909  1846
STARLINK-3661           
1 52129U 22029AT  22085.58334491 -.00875388  00000+0 -58406-2 0  9993
2 52129  53.2171 107.5149 0001030  60.5928 333.0083 15.77034587  1942
STARLINK-3710           
1 52130U 22029AU  22085.58334491  .00133960  17484-4  47241-3 0  9991
2 52130  53.2160 107.2722 0009741 312.3218 199.5863 15.88860475  1905
STARLINK-3711           
1 52131U 22029AV  22085.58334491 -.00875444  00000+0 -58361-2 0  9999
2 52131  53.2171 107.5138 0001111  51.2538 342.7883 15.77052660  1900
STARLINK-3718           
1 52132U 22029AW  22085.58334491 -.00875378  00000+0 -58460-2 0  9996
2 52132  53.2171 107.5161 0001039  59.2934 333.8874 15.77013618  1949
STARLINK-3707           
1 52133U 22029AX  22085.58334491 -.00875504  00000+0 -58267-2 0  9993
2 52133  53.2171 107.5120 0001059  57.6174 337.2901 15.77090765  1942
STARLINK-3721           
1 52134U 22029AY  22085.58334491 -.00875450  00000+0 -58306-2 0  9998
2 52134  53.2171 107.5134 0001036  59.6910 334.7633 15.77074511  1948
STARLINK-3729           
1 52135U 22029AZ  22085.58334491 -.00875543  00000+0 -58108-2 0  9992
2 52135  53.2171 107.5092 0001081  57.2232 338.9413 15.77152593  1942
STARLINK-3720           
1 52136U 22029BA  22085.58334491 -.00875525  00000+0 -58205-2 0  9991
2 52136  53.2171 107.5116 0001132  49.8560 345.4485 15.77114442  1907
STARLINK-3733           
1 52137U 22029BB  22085.58334491 -.00875555  00000+0 -58058-2 0  9991
2 52137  53.2171 107.5083 0001087  55.3112 341.2793 15.77172087  1944
STARLINK-3723           
1 52138U 22029BC  22085.58334491 -.00874938  00000+0 -58111-2 0  9996
2 52138  53.2171 107.5107 0000980  72.6524 323.0672 15.77135297  1904
STARLINK-3730           
1 52139U 22029BD  22085.58334491 -.00879571  00000+0 -43166-2 0  9999
2 52139  53.2171 107.3267 0001098  65.2565  63.1030 15.83675975  1903
STARLINK-3682           
1 52140U 22029BE  22085.58334491 -.00875615  00000+0 -57963-2 0  9996
2 52140  53.2171 107.5070 0001151  49.3354 348.1156 15.77209695  1942
FALCON 9 DEB            
1 52141U 22029BF  22085.55901586  .00165864  20881-4  58629-3 0  9990
2 52141  53.2138 107.4068 0011336 298.6848  61.3039 15.88687853  1183
FALCON 9 DEB            
1 52142U 22029BG  22085.55752532  .00166899  21052-4  58011-3 0  9991
2 52142  53.2142 107.3992 0011559 313.6716  46.3352 15.89015449  1181
FALCON 9 DEB            
1 52143U 22029BH  22085.55280055  .00178846  22718-4  58942-3 0  9996
2 52143  53.2153 107.3718 0006511 309.7204  50.3249 15.90121593  1180
FALCON 9 DEB            
1 52144U 22029BJ  22085.55120374  .00181647  23153-4  58630-3 0  9995
2 52144  53.2159 107.3640 0007359 331.1874  28.8746 15.90514085  1188
MERIDIAN 10             
1 52145U 22030A   22084.61120897 -.00000359  00000+0  47159-1 0  9998
2 52145  62.8219 321.7329 7251109 270.1066  14.8802  1.98450592    63
FREGAT R/B              
1 52146U 22030B   22082.58657795 -.00001519  00000+0  00000+0 0  9996
2 52146  62.8006 322.0150 7296630 269.5351  14.9252  2.00239949    55
